[{"OBJECT_NAME":"STARLINK-1995","OBJECT_ID":"2021-009AU","EPOCH":"2026-03-09T22:00:01.999584","MEAN_MOTION":15.56337819,"ECCENTRICITY":0.00072287,"INCLINATION":53.0479,"RA_OF_ASC_NODE":18.2943,"ARG_OF_PERICENTER":82.4269,"MEAN_ANOMALY":357.8664,"EPHEMERIS_TYPE":0,"CLASSIFICATION_TYPE":"U","NORAD_CAT_ID":47590,"ELEMENT_SET_NO":999,"REV_AT_EPOCH":586,"BSTAR":0.0018767975,"MEAN_MOTION_DOT":0.00136547,"MEAN_MOTION_DDOT":0},{"OBJECT_NAME":"NOAA 16 DEB","OBJECT_ID":"2000-055AK","EPOCH":"2026-03-09T13:47:07.566432","MEAN_MOTION":15.52317837,"ECCENTRICITY":0.0035141,"INCLINATION":99.1738,"RA_OF_ASC_NODE":291.3669,"ARG_OF_PERICENTER":87.8909,"MEAN_ANOMALY":272.6361,"EPHEMERIS_TYPE":0,"CLASSIFICATION_TYPE":"U","NORAD_CAT_ID":41076,"ELEMENT_SET_NO":999,"REV_AT_EPOCH":55071,"BSTAR":0.0028982,"MEAN_MOTION_DOT":0.00184726,"MEAN_MOTION_DDOT":0}]
